[{"OBJECT_NAME":"STARLINK-37134","OBJECT_ID":"2026-055V","EPOCH":"2026-04-11T12:02:26.030688","MEAN_MOTION":15.80937404,"ECCENTRICITY":0.00038796,"INCLINATION":53.1575,"RA_OF_ASC_NODE":172.6791,"ARG_OF_PERICENTER":27.4189,"MEAN_ANOMALY":332.7038,"EPHEMERIS_TYPE":0,"CLASSIFICATION_TYPE":"U","NORAD_CAT_ID":68281,"ELEMENT_SET_NO":999,"REV_AT_EPOCH":487,"BSTAR":0.0014793486,"MEAN_MOTION_DOT":0.00302696,"MEAN_MOTION_DDOT":0},{"OBJECT_NAME":"STARLINK-37160","OBJECT_ID":"2026-055W","EPOCH":"2026-04-11T13:34:32.652480","MEAN_MOTION":15.80935727,"ECCENTRICITY":0.00016977,"INCLINATION":53.1575,"RA_OF_ASC_NODE":172.3685,"ARG_OF_PERICENTER":74.4104,"MEAN_ANOMALY":285.7106,"EPHEMERIS_TYPE":0,"CLASSIFICATION_TYPE":"U","NORAD_CAT_ID":68282,"ELEMENT_SET_NO":999,"REV_AT_EPOCH":488,"BSTAR":0.0011912697,"MEAN_MOTION_DOT":0.0024182,"MEAN_MOTION_DDOT":0},{"OBJECT_NAME":"STARLINK-37124","OBJECT_ID":"2026-055X","EPOCH":"2026-04-11T12:01:21.119232","MEAN_MOTION":15.80924971,"ECCENTRICITY":0.00022719,"INCLINATION":53.1576,"RA_OF_ASC_NODE":172.6752,"ARG_OF_PERICENTER":38.6198,"MEAN_ANOMALY":321.4987,"EPHEMERIS_TYPE":0,"CLASSIFICATION_TYPE":"U","NORAD_CAT_ID":68283,"ELEMENT_SET_NO":999,"REV_AT_EPOCH":487,"BSTAR":0.00097468295,"MEAN_MOTION_DOT":0.00196593,"MEAN_MOTION_DDOT":0},{"OBJECT_NAME":"STARLINK-37159","OBJECT_ID":"2026-055Y","EPOCH":"2026-04-12T04:41:39.854688","MEAN_MOTION":15.81031779,"ECCENTRICITY":0.00013906,"INCLINATION":53.1586,"RA_OF_ASC_NODE":169.1854,"ARG_OF_PERICENTER":155.7064,"MEAN_ANOMALY":204.4025,"EPHEMERIS_TYPE":0,"CLASSIFICATION_TYPE":"U","NORAD_CAT_ID":68284,"ELEMENT_SET_NO":999,"REV_AT_EPOCH":498,"BSTAR":0.0014142495,"MEAN_MOTION_DOT":0.00290125,"MEAN_MOTION_DDOT":0},{"OBJECT_NAME":"STARLINK-36725","OBJECT_ID":"2026-055Z","EPOCH":"2026-04-12T04:40:35.020128","MEAN_MOTION":15.81129509,"ECCENTRICITY":0.00019171,"INCLINATION":53.158,"RA_OF_ASC_NODE":169.1785,"ARG_OF_PERICENTER":130.3558,"MEAN_ANOMALY":229.7633,"EPHEMERIS_TYPE":0,"CLASSIFICATION_TYPE":"U","NORAD_CAT_ID":68285,"ELEMENT_SET_NO":999,"REV_AT_EPOCH":498,"BSTAR":0.001970102,"MEAN_MOTION_DOT":0.00412107,"MEAN_MOTION_DDOT":0},{"OBJECT_NAME":"STARLINK-36998","OBJECT_ID":"2026-055AA","EPOCH":"2026-04-11T11:57:01.778400","MEAN_MOTION":15.8092767,"ECCENTRICITY":0.0002691,"INCLINATION":53.1576,"RA_OF_ASC_NODE":172.6561,"ARG_OF_PERICENTER":20.5496,"MEAN_ANOMALY":339.5635,"EPHEMERIS_TYPE":0,"CLASSIFICATION_TYPE":"U","NORAD_CAT_ID":68286,"ELEMENT_SET_NO":999,"REV_AT_EPOCH":487,"BSTAR":0.0011957304,"MEAN_MOTION_DOT":0.00242677,"MEAN_MOTION_DDOT":0},{"OBJECT_NAME":"STARLINK-37165","OBJECT_ID":"2026-055AB","EPOCH":"2026-04-12T04:37:20.595936","MEAN_MOTION":15.81070482,"ECCENTRICITY":0.00016849,"INCLINATION":53.1582,"RA_OF_ASC_NODE":169.1639,"ARG_OF_PERICENTER":154.5943,"MEAN_ANOMALY":205.5162,"EPHEMERIS_TYPE":0,"CLASSIFICATION_TYPE":"U","NORAD_CAT_ID":68287,"ELEMENT_SET_NO":999,"REV_AT_EPOCH":498,"BSTAR":0.0017886478,"MEAN_MOTION_DOT":0.00371287,"MEAN_MOTION_DDOT":0},{"OBJECT_NAME":"STARLINK-37016","OBJECT_ID":"2026-055AC","EPOCH":"2026-04-12T04:39:30.084480","MEAN_MOTION":15.81105674,"ECCENTRICITY":0.00017507,"INCLINATION":53.1582,"RA_OF_ASC_NODE":169.1745,"ARG_OF_PERICENTER":152.2885,"MEAN_ANOMALY":207.8232,"EPHEMERIS_TYPE":0,"CLASSIFICATION_TYPE":"U","NORAD_CAT_ID":68288,"ELEMENT_SET_NO":999,"REV_AT_EPOCH":498,"BSTAR":0.0018057613,"MEAN_MOTION_DOT":0.00375647,"MEAN_MOTION_DDOT":0},{"OBJECT_NAME":"STARLINK-37010","OBJECT_ID":"2026-055AD","EPOCH":"2026-04-11T14:56:56.412096","MEAN_MOTION":15.80974416,"ECCENTRICITY":0.00022877,"INCLINATION":53.1572,"RA_OF_ASC_NODE":172.0105,"ARG_OF_PERICENTER":35.6684,"MEAN_ANOMALY":324.4491,"EPHEMERIS_TYPE":0,"CLASSIFICATION_TYPE":"U","NORAD_CAT_ID":68289,"ELEMENT_SET_NO":999,"REV_AT_EPOCH":489,"BSTAR":0.001575031,"MEAN_MOTION_DOT":0.00323605,"MEAN_MOTION_DDOT":0},{"OBJECT_NAME":"STARLINK-37151","OBJECT_ID":"2026-055AE","EPOCH":"2026-04-11T11:53:47.279904","MEAN_MOTION":15.80990482,"ECCENTRICITY":0.00026032,"INCLINATION":53.1572,"RA_OF_ASC_NODE":172.6388,"ARG_OF_PERICENTER":28.4442,"MEAN_ANOMALY":331.6723,"EPHEMERIS_TYPE":0,"CLASSIFICATION_TYPE":"U","NORAD_CAT_ID":68290,"ELEMENT_SET_NO":999,"REV_AT_EPOCH":487,"BSTAR":0.0017447181,"MEAN_MOTION_DOT":0.00360362,"MEAN_MOTION_DDOT":0},{"OBJECT_NAME":"STRIX-6","OBJECT_ID":"2026-056A","EPOCH":"2026-04-11T20:08:00.245472","MEAN_MOTION":14.99752311,"ECCENTRICITY":0.00164388,"INCLINATION":50.2834,"RA_OF_ASC_NODE":303.3251,"ARG_OF_PERICENTER":349.575,"MEAN_ANOMALY":10.4856,"EPHEMERIS_TYPE":0,"CLASSIFICATION_TYPE":"U","NORAD_CAT_ID":68291,"ELEMENT_SET_NO":999,"REV_AT_EPOCH":331,"BSTAR":0.00021968886,"MEAN_MOTION_DOT":2.487e-5,"MEAN_MOTION_DDOT":0},{"OBJECT_NAME":"ELECTRON KICK STAGE R/B","OBJECT_ID":"2026-056C","EPOCH":"2026-04-11T23:18:38.706912","MEAN_MOTION":15.42366067,"ECCENTRICITY":0.0148978,"INCLINATION":50.2891,"RA_OF_ASC_NODE":295.9352,"ARG_OF_PERICENTER":101.506,"MEAN_ANOMALY":260.2677,"EPHEMERIS_TYPE":0,"CLASSIFICATION_TYPE":"U","NORAD_CAT_ID":68293,"ELEMENT_SET_NO":999,"REV_AT_EPOCH":343,"BSTAR":0.00097985876,"MEAN_MOTION_DOT":0.00065028,"MEAN_MOTION_DDOT":0},{"OBJECT_NAME":"STARLINK-37107","OBJECT_ID":"2026-057A","EPOCH":"2026-04-12T06:00:02.000160","MEAN_MOTION":15.76867478,"ECCENTRICITY":0.0001698,"INCLINATION":97.2843,"RA_OF_ASC_NODE":226.3336,"ARG_OF_PERICENTER":82.7621,"MEAN_ANOMALY":348.9207,"EPHEMERIS_TYPE":0,"CLASSIFICATION_TYPE":"U","NORAD_CAT_ID":68294,"ELEMENT_SET_NO":999,"REV_AT_EPOCH":455,"BSTAR":-0.013180508,"MEAN_MOTION_DOT":-0.01851874,"MEAN_MOTION_DDOT":0},{"OBJECT_NAME":"STARLINK-37147","OBJECT_ID":"2026-057B","EPOCH":"2026-04-12T06:00:02.000160","MEAN_MOTION":15.75167754,"ECCENTRICITY":0.00015552,"INCLINATION":97.2841,"RA_OF_ASC_NODE":226.3246,"ARG_OF_PERICENTER":87.354,"MEAN_ANOMALY":323.5672,"EPHEMERIS_TYPE":0,"CLASSIFICATION_TYPE":"U","NORAD_CAT_ID":68295,"ELEMENT_SET_NO":999,"REV_AT_EPOCH":454,"BSTAR":7.3943009e-5,"MEAN_MOTION_DOT":0.00010903,"MEAN_MOTION_DDOT":0},{"OBJECT_NAME":"STARLINK-37142","OBJECT_ID":"2026-057C","EPOCH":"2026-04-12T07:07:04.628640","MEAN_MOTION":15.80964366,"ECCENTRICITY":0.00012928,"INCLINATION":97.2833,"RA_OF_ASC_NODE":226.3895,"ARG_OF_PERICENTER":110.9093,"MEAN_ANOMALY":249.2314,"EPHEMERIS_TYPE":0,"CLASSIFICATION_TYPE":"U","NORAD_CAT_ID":68296,"ELEMENT_SET_NO":999,"REV_AT_EPOCH":357,"BSTAR":0.0019321517,"MEAN_MOTION_DOT":0.00389608,"MEAN_MOTION_DDOT":0},{"OBJECT_NAME":"STARLINK-37115","OBJECT_ID":"2026-057D","EPOCH":"2026-04-11T20:30:04.600224","MEAN_MOTION":15.8089,"ECCENTRICITY":0.0001112,"INCLINATION":97.2834,"RA_OF_ASC_NODE":225.9182,"ARG_OF_PERICENTER":91.5762,"MEAN_ANOMALY":268.5633,"EPHEMERIS_TYPE":0,"CLASSIFICATION_TYPE":"U","NORAD_CAT_ID":68297,"ELEMENT_SET_NO":999,"REV_AT_EPOCH":350,"BSTAR":0.00083763839,"MEAN_MOTION_DOT":0.00163907,"MEAN_MOTION_DDOT":0},{"OBJECT_NAME":"STARLINK-36355","OBJECT_ID":"2026-057E","EPOCH":"2026-04-12T07:09:14.421312","MEAN_MOTION":15.80959474,"ECCENTRICITY":0.00013174,"INCLINATION":97.2825,"RA_OF_ASC_NODE":226.3868,"ARG_OF_PERICENTER":129.1208,"MEAN_ANOMALY":231.0177,"EPHEMERIS_TYPE":0,"CLASSIFICATION_TYPE":"U","NORAD_CAT_ID":68298,"ELEMENT_SET_NO":999,"REV_AT_EPOCH":357,"BSTAR":0.0016284504,"MEAN_MOTION_DOT":0.00325848,"MEAN_MOTION_DDOT":0},{"OBJECT_NAME":"STARLINK-37118","OBJECT_ID":"2026-057F","EPOCH":"2026-04-12T07:04:54.838560","MEAN_MOTION":15.80996407,"ECCENTRICITY":0.00020435,"INCLINATION":97.283,"RA_OF_ASC_NODE":226.3899,"ARG_OF_PERICENTER":141.9856,"MEAN_ANOMALY":218.1557,"EPHEMERIS_TYPE":0,"CLASSIFICATION_TYPE":"U","NORAD_CAT_ID":68299,"ELEMENT_SET_NO":999,"REV_AT_EPOCH":357,"BSTAR":0.0022231146,"MEAN_MOTION_DOT":0.00452224,"MEAN_MOTION_DDOT":0},{"OBJECT_NAME":"STARLINK-36875","OBJECT_ID":"2026-057G","EPOCH":"2026-04-12T07:05:59.685216","MEAN_MOTION":15.80871695,"ECCENTRICITY":0.00010285,"INCLINATION":97.2832,"RA_OF_ASC_NODE":226.3897,"ARG_OF_PERICENTER":82.2001,"MEAN_ANOMALY":277.9384,"EPHEMERIS_TYPE":0,"CLASSIFICATION_TYPE":"U","NORAD_CAT_ID":68300,"ELEMENT_SET_NO":999,"REV_AT_EPOCH":357,"BSTAR":0.00086538019,"MEAN_MOTION_DOT":0.00169304,"MEAN_MOTION_DDOT":0},{"OBJECT_NAME":"STARLINK-37099","OBJECT_ID":"2026-057H","EPOCH":"2026-04-12T07:03:49.845024","MEAN_MOTION":15.80956104,"ECCENTRICITY":0.00010546,"INCLINATION":97.283,"RA_OF_ASC_NODE":226.3914,"ARG_OF_PERICENTER":118.5236,"MEAN_ANOMALY":241.6139,"EPHEMERIS_TYPE":0,"CLASSIFICATION_TYPE":"U","NORAD_CAT_ID":68301,"ELEMENT_SET_NO":999,"REV_AT_EPOCH":357,"BSTAR":0.0019741334,"MEAN_MOTION_DOT":0.00398337,"MEAN_MOTION_DDOT":0},{"OBJECT_NAME":"STARLINK-37007","OBJECT_ID":"2026-057J","EPOCH":"2026-04-12T07:01:40.017792","MEAN_MOTION":15.80995621,"ECCENTRICITY":9.305e-5,"INCLINATION":97.2838,"RA_OF_ASC_NODE":226.3929,"ARG_OF_PERICENTER":113.0136,"MEAN_ANOMALY":247.1231,"EPHEMERIS_TYPE":0,"CLASSIFICATION_TYPE":"U","NORAD_CAT_ID":68302,"ELEMENT_SET_NO":999,"REV_AT_EPOCH":357,"BSTAR":0.0022204571,"MEAN_MOTION_DOT":0.00451671,"MEAN_MOTION_DDOT":0},{"OBJECT_NAME":"STARLINK-36300","OBJECT_ID":"2026-057K","EPOCH":"2026-04-12T07:02:44.924064","MEAN_MOTION":15.81008462,"ECCENTRICITY":0.000255,"INCLINATION":97.2836,"RA_OF_ASC_NODE":226.3921,"ARG_OF_PERICENTER":130.5395,"MEAN_ANOMALY":229.6095,"EPHEMERIS_TYPE":0,"CLASSIFICATION_TYPE":"U","NORAD_CAT_ID":68303,"ELEMENT_SET_NO":999,"REV_AT_EPOCH":357,"BSTAR":0.0022454984,"MEAN_MOTION_DOT":0.00457298,"MEAN_MOTION_DDOT":0},{"OBJECT_NAME":"STARLINK-36849","OBJECT_ID":"2026-057L","EPOCH":"2026-04-11T20:22:30.040320","MEAN_MOTION":15.80924143,"ECCENTRICITY":4.074e-5,"INCLINATION":97.2849,"RA_OF_ASC_NODE":225.9252,"ARG_OF_PERICENTER":109.3657,"MEAN_ANOMALY":250.7655,"EPHEMERIS_TYPE":0,"CLASSIFICATION_TYPE":"U","NORAD_CAT_ID":68304,"ELEMENT_SET_NO":999,"REV_AT_EPOCH":350,"BSTAR":0.0015745325,"MEAN_MOTION_DOT":0.00314137,"MEAN_MOTION_DDOT":0}]
